SAUDISAT 1C (SO-50)     
1 27607U 02058C   26184.81089851  .00001055  00000+0  14145-3 0  9996
2 27607  64.5520  77.5517 0074850 259.3699  99.8971 14.83081688266920
SAUDISAT 2              
1 28371U 04025F   26185.26991954  .00000307  00000+0  79546-4 0  9993
2 28371  98.5512 185.6936 0023556 243.0600 116.8191 14.56693820168238
SAUDISAT 3              
1 31118U 07012B   26185.12319026  .00000332  00000+0  61743-4 0  9992
2 31118  98.1462 135.5356 0014820 168.4720 191.6829 14.71435564 30231
PISAT                   
1 41784U 16059B   26185.24088584  .00001197  00000+0  21075-3 0  9991
2 41784  97.8183 184.9611 0029770 148.4688 211.8310 14.69015024522249
FLYING LAPTOP           
1 42831U 17042G   26185.31593222  .00003180  00000+0  25097-3 0  9998
2 42831  97.4771 340.1975 0019966  67.1205 293.2125 15.01255339489027
SALSAT                  
1 46495U 20068K   26184.95457312  .00009251  00000+0  32069-3 0  9990
2 46495  97.8853 189.0427 0008159 236.6445 123.4014 15.30040776317924
